CCSDS_OMM_VERS = 2.0
CREATION_DATE  = 
ORIGINATOR     = 

OBJECT_NAME    = ATLAS CENTAUR R/B
OBJECT_ID      = 1972-065B
CENTER_NAME    = EARTH
REF_FRAME      = TEME
TIME_SYSTEM    = UTC
MEAN_ELEMENT_THEORY = SGP/SGP4

EPOCH          = 2025-12-04T13:12:05.724864
MEAN_MOTION    = 14.77373289
ECCENTRICITY   = .0034572
INCLINATION    = 35.0000
RA_OF_ASC_NODE = 143.1703
ARG_OF_PERICENTER = 289.7370
MEAN_ANOMALY   = 69.9603

EPHEMERIS_TYPE = 0
CLASSIFICATION_TYPE = U
NORAD_CAT_ID   = 6155
ELEMENT_SET_NO = 999
REV_AT_EPOCH   = 82718
BSTAR          = .31037E-3
MEAN_MOTION_DOT = .2243E-4
MEAN_MOTION_DDOT = 0

CCSDS_OMM_VERS = 2.0
CREATION_DATE  = 
ORIGINATOR     = 

OBJECT_NAME    = SL-8 R/B
OBJECT_ID      = 1975-112B
CENTER_NAME    = EARTH
REF_FRAME      = TEME
TIME_SYSTEM    = UTC
MEAN_ELEMENT_THEORY = SGP/SGP4

EPOCH          = 2025-12-05T00:57:01.203264
MEAN_MOTION    = 14.38137827
ECCENTRICITY   = .00164714
INCLINATION    = 74.0597
RA_OF_ASC_NODE = 193.0214
ARG_OF_PERICENTER = 305.2162
MEAN_ANOMALY   = 54.7449

EPHEMERIS_TYPE = 0
CLASSIFICATION_TYPE = U
NORAD_CAT_ID   = 8459
ELEMENT_SET_NO = 999
REV_AT_EPOCH   = 61826
BSTAR          = .18926077E-3
MEAN_MOTION_DOT = .549E-5
MEAN_MOTION_DDOT = 0

CCSDS_OMM_VERS = 2.0
CREATION_DATE  = 
ORIGINATOR     = 

OBJECT_NAME    = SL-3 R/B
OBJECT_ID      = 1977-057B
CENTER_NAME    = EARTH
REF_FRAME      = TEME
TIME_SYSTEM    = UTC
MEAN_ELEMENT_THEORY = SGP/SGP4

EPOCH          = 2025-12-05T05:34:41.698848
MEAN_MOTION    = 15.42678933
ECCENTRICITY   = .00063949
INCLINATION    = 97.5679
RA_OF_ASC_NODE = 142.2698
ARG_OF_PERICENTER = 264.2519
MEAN_ANOMALY   = 95.7999

EPHEMERIS_TYPE = 0
CLASSIFICATION_TYPE = U
NORAD_CAT_ID   = 10114
ELEMENT_SET_NO = 999
REV_AT_EPOCH   = 65375
BSTAR          = .45835366E-3
MEAN_MOTION_DOT = .19933E-3
MEAN_MOTION_DDOT = 0

CCSDS_OMM_VERS = 2.0
CREATION_DATE  = 
ORIGINATOR     = 

OBJECT_NAME    = SEASAT 1
OBJECT_ID      = 1978-064A
CENTER_NAME    = EARTH
REF_FRAME      = TEME
TIME_SYSTEM    = UTC
MEAN_ELEMENT_THEORY = SGP/SGP4

EPOCH          = 2025-12-05T06:43:40.060992
MEAN_MOTION    = 14.46048751
ECCENTRICITY   = .00018237
INCLINATION    = 108.0102
RA_OF_ASC_NODE = 287.3848
ARG_OF_PERICENTER = 250.1474
MEAN_ANOMALY   = 109.9475

EPHEMERIS_TYPE = 0
CLASSIFICATION_TYPE = U
NORAD_CAT_ID   = 10967
ELEMENT_SET_NO = 999
REV_AT_EPOCH   = 49286
BSTAR          = .29786903E-3
MEAN_MOTION_DOT = .927E-5
MEAN_MOTION_DDOT = 0

CCSDS_OMM_VERS = 2.0
CREATION_DATE  = 
ORIGINATOR     = 

OBJECT_NAME    = SL-14 R/B
OBJECT_ID      = 1979-011B
CENTER_NAME    = EARTH
REF_FRAME      = TEME
TIME_SYSTEM    = UTC
MEAN_ELEMENT_THEORY = SGP/SGP4

EPOCH          = 2025-12-05T01:46:55.626816
MEAN_MOTION    = 14.91756170
ECCENTRICITY   = .00165889
INCLINATION    = 82.5241
RA_OF_ASC_NODE = 186.3141
ARG_OF_PERICENTER = 18.6762
MEAN_ANOMALY   = 341.5063

EPHEMERIS_TYPE = 0
CLASSIFICATION_TYPE = U
NORAD_CAT_ID   = 11267
ELEMENT_SET_NO = 999
REV_AT_EPOCH   = 51467
BSTAR          = .10578297E-3
MEAN_MOTION_DOT = .1093E-4
MEAN_MOTION_DDOT = 0

CCSDS_OMM_VERS = 2.0
CREATION_DATE  = 
ORIGINATOR     = 

OBJECT_NAME    = SL-8 R/B
OBJECT_ID      = 1979-089B
CENTER_NAME    = EARTH
REF_FRAME      = TEME
TIME_SYSTEM    = UTC
MEAN_ELEMENT_THEORY = SGP/SGP4

EPOCH          = 2025-12-05T06:37:04.082880
MEAN_MOTION    = 14.42275545
ECCENTRICITY   = .00144492
INCLINATION    = 74.0692
RA_OF_ASC_NODE = 265.7930
ARG_OF_PERICENTER = 103.4310
MEAN_ANOMALY   = 256.8458

EPHEMERIS_TYPE = 0
CLASSIFICATION_TYPE = U
NORAD_CAT_ID   = 11574
ELEMENT_SET_NO = 999
REV_AT_EPOCH   = 42249
BSTAR          = .1898473E-3
MEAN_MOTION_DOT = .601E-5
MEAN_MOTION_DDOT = 0

CCSDS_OMM_VERS = 2.0
CREATION_DATE  = 
ORIGINATOR     = 

OBJECT_NAME    = SL-14 R/B
OBJECT_ID      = 1980-005B
CENTER_NAME    = EARTH
REF_FRAME      = TEME
TIME_SYSTEM    = UTC
MEAN_ELEMENT_THEORY = SGP/SGP4

EPOCH          = 2025-12-05T05:26:14.638848
MEAN_MOTION    = 14.90778191
ECCENTRICITY   = .00171765
INCLINATION    = 82.5155
RA_OF_ASC_NODE = 36.8244
ARG_OF_PERICENTER = 116.3312
MEAN_ANOMALY   = 243.9673

EPHEMERIS_TYPE = 0
CLASSIFICATION_TYPE = U
NORAD_CAT_ID   = 11672
ELEMENT_SET_NO = 999
REV_AT_EPOCH   = 46241
BSTAR          = .11092227E-3
MEAN_MOTION_DOT = .1118E-4
MEAN_MOTION_DDOT = 0

CCSDS_OMM_VERS = 2.0
CREATION_DATE  = 
ORIGINATOR     = 

OBJECT_NAME    = SL-8 R/B
OBJECT_ID      = 1981-003B
CENTER_NAME    = EARTH
REF_FRAME      = TEME
TIME_SYSTEM    = UTC
MEAN_ELEMENT_THEORY = SGP/SGP4

EPOCH          = 2025-12-05T04:00:56.997504
MEAN_MOTION    = 15.06710474
ECCENTRICITY   = .02806433
INCLINATION    = 82.9288
RA_OF_ASC_NODE = 17.1731
ARG_OF_PERICENTER = 146.3322
MEAN_ANOMALY   = 215.6098

EPHEMERIS_TYPE = 0
CLASSIFICATION_TYPE = U
NORAD_CAT_ID   = 12139
ELEMENT_SET_NO = 999
REV_AT_EPOCH   = 30042
BSTAR          = .7212372E-3
MEAN_MOTION_DOT = .2706E-3
MEAN_MOTION_DDOT = 0

CCSDS_OMM_VERS = 2.0
CREATION_DATE  = 
ORIGINATOR     = 

OBJECT_NAME    = SL-3 R/B
OBJECT_ID      = 1981-046B
CENTER_NAME    = EARTH
REF_FRAME      = TEME
TIME_SYSTEM    = UTC
MEAN_ELEMENT_THEORY = SGP/SGP4

EPOCH          = 2025-12-05T06:50:00.801600
MEAN_MOTION    = 15.39380325
ECCENTRICITY   = .00194385
INCLINATION    = 81.2339
RA_OF_ASC_NODE = 42.8547
ARG_OF_PERICENTER = 350.7064
MEAN_ANOMALY   = 9.3814

EPHEMERIS_TYPE = 0
CLASSIFICATION_TYPE = U
NORAD_CAT_ID   = 12465
ELEMENT_SET_NO = 999
REV_AT_EPOCH   = 42389
BSTAR          = .45872131E-3
MEAN_MOTION_DOT = .18096E-3
MEAN_MOTION_DDOT = 0

CCSDS_OMM_VERS = 2.0
CREATION_DATE  = 
ORIGINATOR     = 

OBJECT_NAME    = SL-3 R/B
OBJECT_ID      = 1981-103B
CENTER_NAME    = EARTH
REF_FRAME      = TEME
TIME_SYSTEM    = UTC
MEAN_ELEMENT_THEORY = SGP/SGP4

EPOCH          = 2025-12-05T05:19:44.341536
MEAN_MOTION    = 15.20094851
ECCENTRICITY   = .00113876
INCLINATION    = 81.1585
RA_OF_ASC_NODE = 324.1579
ARG_OF_PERICENTER = 242.3971
MEAN_ANOMALY   = 117.6104

EPHEMERIS_TYPE = 0
CLASSIFICATION_TYPE = U
NORAD_CAT_ID   = 12904
ELEMENT_SET_NO = 999
REV_AT_EPOCH   = 95887
BSTAR          = .49061312E-3
MEAN_MOTION_DOT = .10641E-3
MEAN_MOTION_DDOT = 0

CCSDS_OMM_VERS = 2.0
CREATION_DATE  = 
ORIGINATOR     = 

OBJECT_NAME    = SL-3 R/B
OBJECT_ID      = 1982-013B
CENTER_NAME    = EARTH
REF_FRAME      = TEME
TIME_SYSTEM    = UTC
MEAN_ELEMENT_THEORY = SGP/SGP4

EPOCH          = 2025-12-05T06:36:38.924928
MEAN_MOTION    = 15.20981141
ECCENTRICITY   = .00236886
INCLINATION    = 81.1757
RA_OF_ASC_NODE = 271.3448
ARG_OF_PERICENTER = 134.8562
MEAN_ANOMALY   = 225.4599

EPHEMERIS_TYPE = 0
CLASSIFICATION_TYPE = U
NORAD_CAT_ID   = 13068
ELEMENT_SET_NO = 999
REV_AT_EPOCH   = 38999
BSTAR          = .37483027E-3
MEAN_MOTION_DOT = .8396E-4
MEAN_MOTION_DDOT = 0

CCSDS_OMM_VERS = 2.0
CREATION_DATE  = 
ORIGINATOR     = 

OBJECT_NAME    = SL-3 R/B
OBJECT_ID      = 1982-039B
CENTER_NAME    = EARTH
REF_FRAME      = TEME
TIME_SYSTEM    = UTC
MEAN_ELEMENT_THEORY = SGP/SGP4

EPOCH          = 2025-12-05T06:45:07.822656
MEAN_MOTION    = 15.09455508
ECCENTRICITY   = .00301656
INCLINATION    = 81.1726
RA_OF_ASC_NODE = 324.6767
ARG_OF_PERICENTER = 277.6399
MEAN_ANOMALY   = 82.1400

EPHEMERIS_TYPE = 0
CLASSIFICATION_TYPE = U
NORAD_CAT_ID   = 13154
ELEMENT_SET_NO = 999
REV_AT_EPOCH   = 36739
BSTAR          = .35557752E-3
MEAN_MOTION_DOT = .5773E-4
MEAN_MOTION_DDOT = 0

