ATLAS CENTAUR R/B       
1 06155U 72065B   25338.55006626  .00002243  00000+0  31037-3 0  9995
2 06155  35.0000 143.1703 0034572 289.7370  69.9603 14.77373289827183
SL-8 R/B                
1 08459U 75112B   25339.03959726  .00000549  00000+0  18926-3 0  9991
2 08459  74.0597 193.0214 0016471 305.2162  54.7449 14.38137827618268
SL-3 R/B                
1 10114U 77057B   25339.23242707  .00019933  00000+0  45835-3 0  9994
2 10114  97.5679 142.2698 0006394 264.2519  95.7999 15.42678933653757
SEASAT 1                
1 10967U 78064A   25339.28032478  .00000927  00000+0  29787-3 0  9997
2 10967 108.0102 287.3848 0001823 250.1474 109.9475 14.46048751492868
SL-14 R/B               
1 11267U 79011B   25339.07425494  .00001093  00000+0  10578-3 0  9998
2 11267  82.5241 186.3141 0016588  18.6762 341.5063 14.91756170514679
SL-8 R/B                
1 11574U 79089B   25339.27574170  .00000601  00000+0  18985-3 0  9996
2 11574  74.0692 265.7930 0014449 103.4310 256.8458 14.42275545422492
SL-14 R/B               
1 11672U 80005B   25339.22655832  .00001118  00000+0  11092-3 0  9991
2 11672  82.5155  36.8244 0017176 116.3312 243.9673 14.90778191462419
SL-8 R/B                
1 12139U 81003B   25339.16732636  .00027060  00000+0  72124-3 0  9997
2 12139  82.9288  17.1731 0280643 146.3322 215.6098 15.06710474300424
SL-3 R/B                
1 12465U 81046B   25339.28473150  .00018096  00000+0  45872-3 0  9991
2 12465  81.2339  42.8547 0019438 350.7064   9.3814 15.39380325423896
SL-3 R/B                
1 12904U 81103B   25339.22204099  .00010641  00000+0  49061-3 0  9993
2 12904  81.1585 324.1579 0011387 242.3971 117.6104 15.20094851958877
SL-3 R/B                
1 13068U 82013B   25339.27545052  .00008396  00000+0  37483-3 0  9997
2 13068  81.1757 271.3448 0023688 134.8562 225.4599 15.20981141389990
SL-3 R/B                
1 13154U 82039B   25339.28134054  .00005773  00000+0  35558-3 0  9995
2 13154  81.1726 324.6767 0030165 277.6399  82.1400 15.09455508367399
